0 METEOR 2-17 DEB
1 29067U 88005M   13282.05297694  .00002443  00000-0  19480-2 0  4658
2 29067 082.5328 041.6259 0022686 099.0895 261.5162 13.90527652389255
0 METEOR 2-17 DEB
1 29067U 88005M   13283.06031183  .00002011  00000-0  16006-2 0  4662
2 29067 082.5398 040.8239 0026327 099.0604 261.2802 13.90524908389399
0 METEOR 2-17 DEB
1 29067U 88005M   13285.65070475  .00002437  00000-0  19438-2 0  4682
2 29067 082.5294 038.7259 0020421 086.2480 274.1481 13.90546064389754
0 METEOR 2-17 DEB
1 29067U 88005M   13287.01783614  .00002506  00000-0  19985-2 0  4695
2 29067 082.5368 037.6329 0021663 087.0564 273.3511 13.90554685389947
0 METEOR 2-17 DEB
1 29067U 88005M   13289.03254629  .00002547  00000-0  20310-2 0  4709
2 29067 082.5334 036.0041 0020399 079.0021 281.3764 13.90565998390229
0 METEOR 2-17 DEB
1 29067U 88005M   13292.98997486  .00002704  00000-0  21572-2 0  4719
2 29067 082.5360 032.8111 0017318 071.3676 289.1492 13.90592399390777
0 METEOR 2-17 DEB
1 29067U 88005M   13295.00458632  .00002770  00000-0  22099-2 0  4729
2 29067 082.5327 031.1826 0015816 061.3323 298.9621 13.90605412391059
